*******************************************************************************
 Revised: Sep 29, 2017             Callirrhoe / (Jupiter)                   517

 Discovery announcement: IAUC 7460
*******************************************************************************
 
 
*******************************************************************************
Ephemeris / WWW_USER Fri Nov 10 01:18:29 2017 Pasadena, USA      / Horizons    
*******************************************************************************
Target body name: Callirrhoe (517)                {source: jup341}
Center body name: Solar System Barycenter (0)     {source: DE431mx}
Center-site name: BODY CENTER
*******************************************************************************
Start time      : A.D. 2017-Jul-10 00:00:00.0000 TDB
Stop  time      : A.D. 2020-Aug-13 00:00:00.0000 TDB
Step-size       : 1440 minutes
*******************************************************************************
Center geodetic : 0.00000000,0.00000000,0.0000000 {E-lon(deg),Lat(deg),Alt(km)}
Center cylindric: 0.00000000,0.00000000,0.0000000 {E-lon(deg),Dxy(km),Dz(km)}
Center radii    : (undefined)                                                  
Output units    : KM-S                                                         
Output type     : GEOMETRIC cartesian states
Output format   : 3 (position, velocity, LT, range, range-rate)
Reference frame : ICRF/J2000.0                                                 
Coordinate systm: Ecliptic and Mean Equinox of Reference Epoch                 
*******************************************************************************
            JDTDB,            Calendar Date (TDB),                      X,                      Y,                      Z,                     VX,                     VY,                     VZ,                     LT,                     RG,                     RR,
**************************************************************************************************************************************************************************************************************************************************************************
$$SOE
2458843.500000000, A.D. 2019-Dec-26 00:00:00.0000,  7.983891211781426E+07, -7.893987565415487E+08,  8.897850431453288E+06,  9.904502044071712E+00,  7.130430331131269E-01,  5.215450663213455E-01,  2.646750320914628E+03,  7.934757844192851E+08,  2.930524398180671E-01,
2458844.500000000, A.D. 2019-Dec-27 00:00:00.0000,  8.069361580328728E+07, -7.893350254678990E+08,  8.942051382181525E+06,  9.880395169707555E+00,  7.622863668963584E-01,  5.015737902334005E-01,  2.646828893378908E+03,  7.934993398514825E+08,  2.521370485610448E-01,
2458845.500000000, A.D. 2019-Dec-28 00:00:00.0000,  8.154626016408169E+07, -7.892670209472852E+08,  8.984513586914122E+06,  9.856835458872721E+00,  8.119639014879061E-01,  4.812972521019689E-01,  2.646895609703356E+03,  7.935193409023777E+08,  2.107774217454355E-01,
2458846.500000000, A.D. 2019-Dec-29 00:00:00.0000,  8.239689322364864E+07, -7.891947058941593E+08,  9.025210940505266E+06,  9.833840094590691E+00,  8.620654545554445E-01,  4.607218587948059E-01,  2.646950343991239E+03,  7.935357498290790E+08,  1.689885948710361E-01,
2458847.500000000, A.D. 2019-Dec-30 00:00:00.0000,  8.324556447408690E+07, -7.891180441306196E+08,  9.064117909350336E+06,  9.811426029992965E+00,  9.125803895595298E-01,  4.398543065803445E-01,  2.646992974778793E+03,  7.935485302176664E+08,  1.267861176827099E-01,
2458848.500000000, A.D. 2019-Dec-31 00:00:00.0000,  8.409232486562075E+07, -7.890370004207649E+08,  9.101209556761086E+06,  9.789610004646136E+00,  9.634974553424926E-01,  4.187017732813118E-01,  2.647023385170157E+03,  7.935576470236421E+08,  8.418621580038024E-02,
2458849.500000000, A.D. 2020-Jan-01 00:00:00.0000,  8.493722677617528E+07, -7.889515405332091E+08,  9.136461588648260E+06,  9.768408315091225E+00,  1.014804682402121E+00,  3.972719188708367E-01,  2.647041463059026E+03,  7.935630666383814E+08,  4.120586728568763E-02,
2458850.500000000, A.D. 2020-Jan-02 00:00:00.0000,  8.578032397250636E+07, -7.888616312947265E+08,  9.169850387112975E+06,  9.747836821478188E+00,  1.066489562306446E+00,  3.755727287791007E-01,  2.647047101316580E+03,  7.935647569454727E+08, -2.137380163505080E-03,
2458851.500000000, A.D. 2020-Jan-03 00:00:00.0000,  8.662167157364377E+07, -7.887672406357036E+08,  9.201353039575338E+06,  9.727910961890558E+00,  1.118539044955567E+00,  3.536125598798474E-01,  2.647040197951965E+03,  7.935626873688259E+08, -4.582540758343513E-02,
2458852.500000000, A.D. 2020-Jan-04 00:00:00.0000,  8.746132601245011E+07, -7.886683376394193E+08,  9.230947373572767E+06,  9.708645700350573E+00,  1.170939493773867E+00,  3.314001842872095E-01,  2.647020656284077E+03,  7.935568289241766E+08, -8.983948853310098E-02,
2458853.500000000, A.D. 2020-Jan-05 00:00:00.0000,  8.829934499240153E+07, -7.885648925910528E+08,  9.258611990424752E+06,  9.690055481788095E+00,  1.223676736870927E+00,  3.089447289082076E-01,  2.646988385109728E+03,  7.935471542694958E+08, -1.341603490739379E-01,
2458854.500000000, A.D. 2020-Jan-06 00:00:00.0000,  8.913578744242825E+07, -7.884568770212502E+08,  9.284326293913722E+06,  9.672154229105757E+00,  1.276736116515493E+00,  2.862556475271072E-01,  2.646943298851811E+03,  7.935336377494130E+08, -1.787682212178260E-01,
2458855.500000000, A.D. 2020-Jan-07 00:00:00.0000,  8.997071347145668E+07, -7.883442637493089E+08,  9.308070521101952E+06,  9.654955326203623E+00,  1.330102449592047E+00,  2.633427884722999E-01,  2.646885317705140E+03,  7.935162554389347E+08, -2.236428083716137E-01,
2458856.500000000, A.D. 2020-Jan-08 00:00:00.0000,  9.080418431880148E+07, -7.882270269304690E+08,  9.329825778168738E+06,  9.638471538509945E+00,  1.383759999638989E+00,  2.402164112021938E-01,  2.646814367793462E+03,  7.934949851905178E+08, -2.687632701920482E-01,
2458857.500000000, A.D. 2020-Jan-09 00:00:00.0000,  9.163626229677933E+07, -7.881051421004596E+08,  9.349574071211874E+06,  9.622714931678010E+00,  1.437692569706094E+00,  2.168870633269165E-01,  2.646730381313054E+03,  7.934698066771178E+08, -3.141083298918421E-01,
2458858.500000000, A.D. 2020-Jan-10 00:00:00.0000,  9.246701073036829E+07, -7.879785862109240E+08,  9.367298327602208E+06,  9.607696894507704E+00,  1.491883577556256E+00,  1.933655400560382E-01,  2.646633296643305E+03,  7.934407014253397E+08, -3.596563513604588E-01,
2458859.500000000, A.D. 2020-Jan-11 00:00:00.0000,  9.329649390156096E+07, -7.878473376666067E+08,  9.382982424948215E+06,  9.593428184079192E+00,  1.546315945600755E+00,  1.696630708910100E-01,  2.646523058463942E+03,  7.934076528505827E+08, -4.053852267419549E-01,
2458860.500000000, A.D. 2020-Jan-12 00:00:00.0000,  9.412477698716897E+07, -7.877113763672466E+08,  9.396611224790871E+06,  9.579918688954852E+00,  1.600972225441083E+00,  1.457910773094773E-01,  2.646399617884234E+03,  7.933706462957754E+08, -4.512725353186888E-01,
2458861.500000000, A.D. 2020-Jan-13 00:00:00.0000,  9.495192597649714E+07, -7.875706837210909E+08,  9.408170564526856E+06,  9.567177532962489E+00,  1.655834767375118E+00,  1.217610394594639E-01,  2.646262932467162E+03,  7.933296690386186E+08, -4.972957065978086E-01,
2458862.500000000, A.D. 2020-Jan-14 00:00:00.0000,  9.577800764023837E+07, -7.874252426995877E+08,  9.417647323778450E+06,  9.555213202964145E+00,  1.710885415782007E+00,  9.758496422206786E-02,  2.646112966411791E+03,  7.932847103462622E+08, -5.434317013754221E-01,
2458863.500000000, A.D. 2020-Jan-15 00:00:00.0000,  9.660308942033997E+07, -7.872750378352813E+08,  9.425029394302785E+06,  9.544033440600286E+00,  1.766105761100037E+00,  7.327502480994108E-02,  2.645949690510958E+03,  7.932357614626191E+08, -5.896572840752536E-01,
2458864.500000000, A.D. 2020-Jan-16 00:00:00.0000,  9.742723940626779E+07, -7.871200552732966E+08,  9.430305745593727E+06,  9.533644915639103E+00,  1.821477160011143E+00,  4.884349510505770E-02,  2.645773082323281E+03,  7.931828156599329E+08, -6.359490879091870E-01,
2458865.500000000, A.D. 2020-Jan-17 00:00:00.0000,  9.825052622269949E+07, -7.869602827748182E+08,  9.433466407713115E+06,  9.524053611278600E+00,  1.876980744467933E+00,  2.430285749416217E-02,  2.645583126145851E+03,  7.931258682305882E+08, -6.822835817541889E-01,
2458866.500000000, A.D. 2020-Jan-18 00:00:00.0000,  9.907301897889523E+07, -7.867957097451522E+08,  9.434502504669130E+06,  9.515264654129865E+00,  1.932597364937804E+00, -3.341256244236979E-04,  2.645379813093648E+03,  7.930649165109252E+08, -7.286370384171587E-01,
2458867.500000000, A.D. 2020-Jan-19 00:00:00.0000,  9.989478718183367E+07, -7.866263272488680E+08,  9.433406263492107E+06,  9.507282161502843E+00,  1.988307777562778E+00, -2.505469389127479E-02,  2.645163141118981E+03,  7.929999598870602E+08, -7.749857484197193E-01,
2458868.500000000, A.D. 2020-Jan-20 00:00:00.0000,  1.007159006589077E+08, -7.864521280163975E+08,  9.430171015314162E+06,  9.500109450467722E+00,  2.044092658332030E+00, -4.984603000949261E-02,  2.644933115004564E+03,  7.929309997928150E+08, -8.213060128856720E-01,
2458869.500000000, A.D. 2020-Jan-21 00:00:00.0000,  1.015364294890390E+08, -7.862731064522705E+08,  9.424791204016984E+06,  9.493749005036960E+00,  2.099932579816206E+00, -7.469519315172224E-02,  2.644689746364344E+03,  7.928580397099631E+08, -8.675741287644329E-01,
2458870.500000000, A.D. 2020-Jan-22 00:00:00.0000,  1.023564439258470E+08, -7.860892586428174E+08,  9.417262395349622E+06,  9.488202379223651E+00,  2.155808049557717E+00, -9.958916825497799E-02,  2.644433053637746E+03,  7.927810851665056E+08, -9.137664451769745E-01,
2458871.500000000, A.D. 2020-Jan-23 00:00:00.0000,  1.031760143178577E+08, -7.859005823590354E+08,  9.407581280388117E+06,  9.483470228760412E+00,  2.211699571292103E+00, -1.245149259716780E-01,  2.644163062064847E+03,  7.927001437292268E+08, -9.598594263945737E-01,
